NORAD_CAT_ID,OBJECT_NAME,OBJECT_TYPE,EPOCH,MEAN_MOTION,ECCENTRICITY,INCLINATION,RA_OF_ASC_NODE,ARG_OF_PERICENTER,MEAN_ANOMALY,BSTAR,MEAN_MOTION_DOT,MEAN_MOTION_DDOT,TLE_LINE0,TLE_LINE1,TLE_LINE2,SEMIMAJOR_AXIS,PERIOD,APOGEE,PERIGEE,DECAYED
52644.0,STARLINK-3985,PAYLOAD,2022-12-08 07:34:10,15.08849524,0.000336,53.2157,189.4525,45.1567,314.9698,0.00015164,2.126e-05,0.0,0 STARLINK-3985,1 52644U 22052AY  22342.31539716  .00002126  00000-0  15164-3 0  9991,2 52644  53.2157 189.4525 0003360  45.1567 314.9698 15.08849524 31875,6917.851,95.437,542.0409999999998,537.3919999999998,0.0
52644.0,STARLINK-3985,PAYLOAD,2022-12-08 20:17:15,15.08853829,0.0003519,53.2155,187.0737,45.2361,314.8917,0.00028577,4.264e-05,0.0,0 STARLINK-3985,1 52644U 22052AY  22342.84531378  .00004264  00000-0  28577-3 0  9992,2 52644  53.2155 187.0737 0003519  45.2361 314.8917 15.08853829 31956,6917.8380000000025,95.437,542.138,537.269,0.0
52644.0,STARLINK-3985,PAYLOAD,2022-12-09 02:38:47,15.08858275,0.0003518,53.2151,185.8838,45.6952,314.4328,0.00042156,6.431e-05,0.0,0 STARLINK-3985,1 52644U 22052AY  22343.11027125  .00006431  00000-0  42156-3 0  9990,2 52644  53.2151 185.8838 0003518  45.6952 314.4328 15.08858275 32378,6917.825,95.436,542.123,537.256,0.0
52644.0,STARLINK-3985,PAYLOAD,2022-12-09 13:46:29,15.08842437,0.000363,53.2153,183.8033,38.9383,321.187,7.8106e-05,9.55e-06,0.0,0 STARLINK-3985,1 52644U 22052AY  22343.57395512  .00000955  00000-0  78106-4 0  9998,2 52644  53.2153 183.8033 0003630  38.9383 321.1870 15.08842437 32069,6917.873000000001,95.437,542.249,537.227,0.0
52644.0,STARLINK-3985,PAYLOAD,2022-12-09 18:32:39,15.08838525,0.0003024,53.215,182.908,45.9102,314.2139,-1.55e-06,-3.13e-06,0.0,0 STARLINK-3985,1 52644U 22052AY  22343.77267456 -.00000313  00000-0 -15500-5 0  9995,2 52644  53.2150 182.9080 0003024  45.9102 314.2139 15.08838525 32471,6917.885,95.438,541.842,537.658,0.0
52644.0,STARLINK-3985,PAYLOAD,2022-12-10 00:54:12,15.08830956,0.0003431,53.2152,181.7206,45.0487,315.0783,-0.00016184,-2.863e-05,0.0,0 STARLINK-3985,1 52644U 22052AY  22344.03764064 -.00002863  00000-0 -16184-3 0  9991,2 52644  53.2152 181.7206 0003431  45.0487 315.0783 15.08830956 32518,6917.908,95.438,542.1469999999998,537.399,0.0
52644.0,STARLINK-3985,PAYLOAD,2022-12-10 12:01:54,15.08827794,0.000344,53.2152,179.6389,45.6121,314.5152,-9.8525e-05,-1.856e-05,0.0,0 STARLINK-3985,1 52644U 22052AY  22344.50132546 -.00001856  00000-0 -98525-4 0  9998,2 52644  53.2152 179.6389 0003440  45.6121 314.5152 15.08827794 32203,6917.918000000002,95.438,542.1619999999998,537.403,0.0
52644.0,STARLINK-3985,PAYLOAD,2022-12-10 18:23:27,15.08831464,0.0003442,53.2155,178.4497,46.7751,313.3528,-7.078e-05,-1.415e-05,0.0,0 STARLINK-3985,1 52644U 22052AY  22344.76628713 -.00001415  00000-0 -70780-4 0  9996,2 52644  53.2155 178.4497 0003442  46.7751 313.3528 15.08831464 32243,6917.906,95.438,542.153,537.39,0.0
52644.0,STARLINK-3985,PAYLOAD,2022-12-11 13:28:08,15.08753404,0.0003471,53.2168,174.8817,61.0081,299.1259,0.0012782,0.00020066,0.0,0 STARLINK-3985,1 52644U 22052AY  22345.56120596  .00020066  00000-0  12782-2 0  9998,2 52644  53.2168 174.8817 0003471  61.0081 299.1259 15.08753404 32363,6918.145,95.443,542.411,537.609,0.0
52644.0,STARLINK-3985,PAYLOAD,2022-12-11 18:14:14,15.0882718,0.0003417,53.2168,173.9895,48.3296,311.7988,0.00017917,2.563e-05,0.0,0 STARLINK-3985,1 52644U 22052AY  22345.75989410  .00002563  00000-0  17917-3 0  9995,2 52644  53.2168 173.9895 0003417  48.3296 311.7988 15.08827180 32773,6917.92,95.438,542.148,537.4209999999998,0.0
52644.0,STARLINK-3985,PAYLOAD,2022-12-11 19:49:38,15.08830668,0.0003461,53.2158,173.6921,48.4892,311.6396,0.00020527,2.979e-05,0.0,0 STARLINK-3985,1 52644U 22052AY  22345.82613458  .00002979  00000-0  20527-3 0  9991,2 52644  53.2158 173.6921 0003461  48.4892 311.6396 15.08830668 32408,6917.909000000002,95.438,542.168,537.38,0.0
52644.0,STARLINK-3985,PAYLOAD,2022-12-12 13:18:52,15.08836771,0.0003461,53.216,170.4208,50.74800000000001,309.3819,0.00018364,2.635e-05,0.0,0 STARLINK-3985,1 52644U 22052AY  22346.55477498  .00002635  00000-0  18364-3 0  9999,2 52644  53.2160 170.4208 0003461  50.7480 309.3819 15.08836771 32510,6917.89,95.438,542.15,537.361,0.0
52644.0,STARLINK-3985,PAYLOAD,2022-12-12 22:51:11,15.08842052,0.0003485,53.216,168.6366,51.323,308.8074,0.00018935,2.726e-05,0.0,0 STARLINK-3985,1 52644U 22052AY  22346.95221293  .00002726  00000-0  18935-3 0  9998,2 52644  53.2160 168.6366 0003485  51.3230 308.8074 15.08842052 32954,6917.874,95.437,542.15,537.328,0.0
52644.0,STARLINK-3985,PAYLOAD,2022-12-13 13:09:39,15.08847166,0.0003515,53.2162,165.9601,52.4335,307.6976,0.00020043,2.903e-05,0.0,0 STARLINK-3985,1 52644U 22052AY  22347.54836976  .00002903  00000-0  20043-3 0  9994,2 52644  53.2162 165.9601 0003515  52.4335 307.6976 15.08847166 32667,6917.858,95.437,542.155,537.2919999999998,0.0
52644.0,STARLINK-3985,PAYLOAD,2022-12-14 13:00:25,15.08850265,0.0003558,53.2161,161.4996,54.3137,305.8186,0.00010195,1.335e-05,0.0,0 STARLINK-3985,1 52644U 22052AY  22348.54196278  .00001335  00000-0  10195-3 0  9994,2 52644  53.2161 161.4996 0003558  54.3137 305.8186 15.08850265 32816,6917.849,95.437,542.175,537.253,0.0
52644.0,STARLINK-3985,PAYLOAD,2022-12-14 17:46:35,15.08845303,0.000359,53.2163,160.6075,54.1806,305.9519,3.3446e-05,2.43e-06,0.0,0 STARLINK-3985,1 52644U 22052AY  22348.74068522  .00000243  00000-0  33446-4 0  9998,2 52644  53.2163 160.6075 0003590  54.1806 305.9519 15.08845303 33228,6917.864000000001,95.437,542.2130000000002,537.246,0.0
52644.0,STARLINK-3985,PAYLOAD,2022-12-14 19:21:58,15.0884404,0.0003511,53.2162,160.3101,54.4809,305.651,9.1724e-06,-1.43e-06,0.0,0 STARLINK-3985,1 52644U 22052AY  22348.80692532 -.00000143  00000-0  91724-5 0  9993,2 52644  53.2162 160.3101 0003511  54.4809 305.6510 15.08844040 32856,6917.868,95.437,542.1619999999998,537.304,0.0
52644.0,STARLINK-3985,PAYLOAD,2022-12-15 12:51:12,15.08851579,0.0003513,53.216,157.0389,55.3027,304.8296,7.4254e-05,8.94e-06,0.0,0 STARLINK-3985,1 52644U 22052AY  22349.53555876  .00000894  00000-0  74254-4 0  9993,2 52644  53.2160 157.0389 0003513  55.3027 304.8296 15.08851579 32968,6917.845,95.437,542.14,537.28,0.0
52644.0,STARLINK-3985,PAYLOAD,2022-12-15 19:12:44,15.08855829,0.0003486,53.2167,155.8494,56.02,304.1123,7.858600000000001e-05,9.63e-06,0.0,0 STARLINK-3985,1 52644U 22052AY  22349.80051452  .00000963  00000-0  78586-4 0  9993,2 52644  53.2167 155.8494 0003486  56.0200 304.1123 15.08855829 33389,6917.831999999999,95.437,542.109,537.285,0.0
52644.0,STARLINK-3985,PAYLOAD,2022-12-16 11:06:37,15.08837269,0.0003409,53.2168,152.8758,59.7742,300.3587,-5.651600000000001e-05,-1.188e-05,0.0,0 STARLINK-3985,1 52644U 22052AY  22350.46292830 -.00001188  00000-0 -56516-4 0  9995,2 52644  53.2168 152.8758 0003409  59.7742 300.3587 15.08837269 33487,6917.889,95.438,542.112,537.395,0.0
52644.0,STARLINK-3985,PAYLOAD,2022-12-16 17:28:10,15.08823865,0.0003422,53.2167,151.6866,57.587,302.5453,-7.3076e-05,-1.451e-05,0.0,0 STARLINK-3985,1 52644U 22052AY  22350.72789827 -.00001451  00000-0 -73076-4 0  9994,2 52644  53.2167 151.6866 0003422  57.5870 302.5453 15.08823865 33524,6917.93,95.439,542.1619999999998,537.427,0.0
52644.0,STARLINK-3985,PAYLOAD,2022-12-16 20:38:56,15.08825161,0.0003427,53.2168,151.0918,57.6677,302.4647,-6.2958e-05,-1.29e-05,0.0,0 STARLINK-3985,1 52644U 22052AY  22350.86037810 -.00001290  00000-0 -62958-4 0  9995,2 52644  53.2168 151.0918 0003427  57.6677 302.4647 15.08825161 33163,6917.926,95.438,542.1619999999998,537.42,0.0
52644.0,STARLINK-3985,PAYLOAD,2022-12-17 10:57:24,15.08833335,0.0003448,53.2168,148.4155,58.685,301.448,-4.0556e-05,-9.34e-06,0.0,0 STARLINK-3985,1 52644U 22052AY  22351.45653590 -.00000934  00000-0 -40556-4 0  9994,2 52644  53.2168 148.4155 0003448  58.6850 301.4480 15.08833335 33259,6917.901,95.438,542.151,537.38,0.0
52644.0,STARLINK-3985,PAYLOAD,2022-12-17 20:29:43,15.08837583,0.0003451,53.2169,146.6317,57.2559,302.8766,8.5925e-07,-2.75e-06,0.0,0 STARLINK-3985,1 52644U 22052AY  22351.85397409 -.00000275  00000-0  85925-6 0  9990,2 52644  53.2169 146.6317 0003451  57.2559 302.8766 15.08837583 33313,6917.888000000001,95.438,542.14,537.365,0.0
52644.0,STARLINK-3985,PAYLOAD,2022-12-18 10:48:11,15.08832079,0.0003384,53.2171,143.9555,56.9078,303.2239,0.00023355,3.43e-05,0.0,0 STARLINK-3985,1 52644U 22052AY  22352.45013459  .00003430  00000-0  23355-3 0  9998,2 52644  53.2171 143.9555 0003384  56.9078 303.2239 15.08832079 33402,6917.905,95.438,542.111,537.429,0.0
52644.0,STARLINK-3985,PAYLOAD,2022-12-18 17:09:43,15.08841161,0.0003423,53.2172,142.766,57.1107,303.0215,0.00026096,3.867e-05,0.0,0 STARLINK-3985,1 52644U 22052AY  22352.71509121  .00003867  00000-0  26096-3 0  9992,2 52644  53.2172 142.7660 0003423  57.1107 303.0215 15.08841161 33827,6917.877,95.437,542.11,537.374,0.0
52644.0,STARLINK-3985,PAYLOAD,2022-12-18 18:45:07,15.08841689,0.0003386,53.2173,142.4687,56.7388,303.3928,0.00029698,4.441e-05,0.0,0 STARLINK-3985,1 52644U 22052AY  22352.78133174  .00004441  00000-0  29698-3 0  9990,2 52644  53.2173 142.4687 0003386  56.7388 303.3928 15.08841689 33456,6917.875,95.437,542.0830000000002,537.398,0.0
52644.0,STARLINK-3985,PAYLOAD,2022-12-19 09:03:35,15.08850549,0.0003367,53.2169,139.7941,56.7263,303.4052,0.00030549,4.578e-05,0.0,0 STARLINK-3985,1 52644U 22052AY  22353.37749137  .00004578  00000-0  30549-3 0  9996,2 52644  53.2169 139.7941 0003367  56.7263 303.4052 15.08850549 33548,6917.848000000001,95.437,542.0419999999998,537.384,0.0
52644.0,STARLINK-3985,PAYLOAD,2022-12-19 20:11:16,15.08853252,0.0003445,53.2165,137.7109,57.3626,302.7698,0.00018986,2.735e-05,0.0,0 STARLINK-3985,1 52644U 22052AY  22353.84116538  .00002735  00000-0  18986-3 0  9995,2 52644  53.2165 137.7109 0003445  57.3626 302.7698 15.08853252 33615,6917.84,95.437,542.0880000000002,537.322,0.0
